0 SL-8 R/B
1 11170U 78122B   13281.01923932  .00000078  00000-0  15703-3 0  8818
2 11170 082.9720 058.3023 0024264 313.5680 184.1553 13.21966028678113
0 SL-8 R/B
1 11170U 78122B   13283.41701962  .00000116  00000-0  24851-3 0  8829
2 11170 082.9723 056.6881 0024188 307.1556 075.6908 13.21965855678435
0 SL-8 R/B
1 11170U 78122B   13285.46452848 -.00000076  00000-0 -21396-3 0  8831
2 11170 082.9729 055.3098 0024156 301.6885 100.1869 13.21967946678709
0 SL-8 R/B
1 11170U 78122B   13287.50895204  .00000041  00000-0  67669-4 0  8840
2 11170 082.9736 053.9337 0024139 296.2172 110.0346 13.21966999678972
0 SL-8 R/B
1 11170U 78122B   13289.86955038  .00000149  00000-0  32850-3 0  8856
2 11170 082.9739 052.3451 0024166 289.8820 184.6452 13.21966088679282
0 SL-8 R/B
1 11170U 78122B   13292.20107515 -.00000006  00000-0 -44861-4 0  8868
2 11170 082.9739 050.7760 0024171 283.6456 120.8461 13.21968260679590
0 SL-8 R/B
1 11170U 78122B   13294.47293567  .00000124  00000-0  26695-3 0  8876
2 11170 082.9740 049.2470 0024154 277.5312 133.1545 13.21967182679892
